NORAD_CAT_ID,OBJECT_NAME,OBJECT_TYPE,EPOCH,MEAN_MOTION,ECCENTRICITY,INCLINATION,RA_OF_ASC_NODE,ARG_OF_PERICENTER,MEAN_ANOMALY,BSTAR,MEAN_MOTION_DOT,MEAN_MOTION_DDOT,TLE_LINE0,TLE_LINE1,TLE_LINE2,SEMIMAJOR_AXIS,PERIOD,APOGEE,PERIGEE,DECAYED
55316.0,STARLINK-5257,PAYLOAD,2023-05-18 00:54:27,15.69918008,0.0002678,70.0003,95.9205,254.2925,105.7975,-7.853e-06,-1.156e-05,0.0,0 STARLINK-5257,1 55316U 23010AZ  23138.03781805 -.00001156  00000-0 -78530-5 0  9998,2 55316  70.0003  95.9205 0002678 254.2925 105.7975 15.69918008 19106,6737.269,91.725,360.938,357.329,0.0
55316.0,STARLINK-5257,PAYLOAD,2023-05-18 07:01:27,15.69926835,0.0003348,69.9983,95.2016,265.7471,94.3342,-2.549e-07,-2.43e-06,0.0,0 STARLINK-5257,1 55316U 23010AZ  23138.29267759 -.00000243  00000-0 -25490-6 0  9997,2 55316  69.9983  95.2016 0003348 265.7471  94.3342 15.69926835 19143,6737.243,91.724,361.364,356.853,0.0
55316.0,STARLINK-5257,PAYLOAD,2023-05-19 05:57:44,15.69925311,0.0003334,69.9984,92.5146,263.1752,96.9064,8.6242e-06,8.24e-06,0.0,0 STARLINK-5257,1 55316U 23010AZ  23139.24842648  .00000824  00000-0  86242-5 0  9993,2 55316  69.9984  92.5146 0003334 263.1752  96.9064 15.69925311 20483,6737.248,91.724,361.359,356.866,0.0
55316.0,STARLINK-5257,PAYLOAD,2023-05-20 04:54:00,15.69924152,0.0002993,69.9985,89.8281,252.7774,107.3095,1.7378e-05,1.877e-05,0.0,0 STARLINK-5257,1 55316U 23010AZ  23140.20417608  .00001877  00000-0  17378-4 0  9997,2 55316  69.9985  89.8281 0002993 252.7774 107.3095 15.69924152 19448,6737.251,91.724,361.132,357.1,0.0
55316.0,STARLINK-5257,PAYLOAD,2023-05-20 06:25:45,15.69927675,0.0002971,69.9982,89.649,255.4249,104.6617,1.0368e-05,1.034e-05,0.0,0 STARLINK-5257,1 55316U 23010AZ  23140.26789223  .00001034  00000-0  10368-4 0  9995,2 55316  69.9982  89.6490 0002971 255.4249 104.6617 15.69927675 20645,6737.241,91.724,361.108,357.104,0.0
55316.0,STARLINK-5257,PAYLOAD,2023-05-20 23:15:02,15.69921825,0.0002938,69.9991,87.6811,256.6259,103.4609,4.2797e-06,3.02e-06,0.0,0 STARLINK-5257,1 55316U 23010AZ  23140.96878012  .00000302  00000-0  42797-5 0  9996,2 55316  69.9991  87.6811 0002938 256.6259 103.4609 15.69921825 19565,6737.258,91.724,361.102,357.143,0.0
55316.0,STARLINK-5257,PAYLOAD,2023-05-21 06:53:49,15.69902035,0.0002849,69.9996,86.7828,275.9123,84.1748,-1.6503e-05,-2.194e-05,0.0,0 STARLINK-5257,1 55316U 23010AZ  23141.28738296 -.00002194  00000-0 -16503-4 0  9999,2 55316  69.9996  86.7828 0002849 275.9123  84.1748 15.69902035 19610,6737.314,91.725,361.099,357.26,0.0
55316.0,STARLINK-5257,PAYLOAD,2023-05-22 02:46:33,15.69941277,0.0003287,69.9991,84.455,266.602,93.48,1.7618e-05,1.908e-05,0.0,0 STARLINK-5257,1 55316U 23010AZ  23142.11566893  .00001908  00000-0  17618-4 0  9992,2 55316  69.9991  84.4550 0003287 266.6020  93.4800 15.69941277 19749,6737.202,91.723,361.282,356.852,0.0
55316.0,STARLINK-5257,PAYLOAD,2023-05-22 13:28:50,15.69924351,0.0003324,69.9991,83.201,268.6314,91.4501,5.6489e-06,4.67e-06,0.0,0 STARLINK-5257,1 55316U 23010AZ  23142.56169708  .00000467  00000-0  56489-5 0  9994,2 55316  69.9991  83.2010 0003324 268.6314  91.4501 15.69924351 21009,6737.25,91.724,361.355,356.876,0.0
55316.0,STARLINK-5257,PAYLOAD,2023-05-22 19:35:52,15.69909698,0.0003235,69.9989,82.4845,270.4433,89.6392,-6.8528e-06,-1.036e-05,0.0,0 STARLINK-5257,1 55316U 23010AZ  23142.81657710 -.00001036  00000-0 -68528-5 0  9999,2 55316  69.9989  82.4845 0003235 270.4433  89.6392 15.69909698 19851,6737.292,91.725,361.337,356.978,0.0
55316.0,STARLINK-5257,PAYLOAD,2023-05-23 04:46:22,15.69913628,0.0003019,69.999,81.4098,272.1593,87.9257,-2.0589e-06,-4.6e-06,0.0,0 STARLINK-5257,1 55316U 23010AZ  23143.19887661 -.00000460  00000-0 -20589-5 0  9996,2 55316  69.9990  81.4098 0003019 272.1593  87.9257 15.69913628 19914,6737.281,91.725,361.18,357.112,0.0
55316.0,STARLINK-5257,PAYLOAD,2023-05-24 02:10:53,15.69929615,0.0003723,69.9985,78.9009,264.4818,95.5953,-1.1285e-05,-1.57e-05,0.0,0 STARLINK-5257,1 55316U 23010AZ  23144.09090201 -.00001570  00000-0 -11285-4 0  9997,2 55316  69.9985  78.9009 0003723 264.4818  95.5953 15.69929615 20055,6737.235,91.724,361.609,356.592,0.0
55316.0,STARLINK-5257,PAYLOAD,2023-05-24 05:14:24,15.69930735,0.00035,69.9986,78.5429,262.9496,97.1302,-8.0092e-06,-1.176e-05,0.0,0 STARLINK-5257,1 55316U 23010AZ  23144.21833400 -.00001176  00000-0 -80092-5 0  9992,2 55316  69.9986  78.5429 0003500 262.9496  97.1302 15.69930735 21261,6737.232,91.724,361.455,356.739,0.0
55316.0,STARLINK-5257,PAYLOAD,2023-05-25 22:31:42,15.69923228,0.0003512,69.9983,73.7061,256.6792,103.4012,6.9834e-06,6.27e-06,0.0,0 STARLINK-5257,1 55316U 23010AZ  23145.93868538  .00000627  00000-0  69834-5 0  9991,2 55316  69.9983  73.7061 0003512 256.6792 103.4012 15.69923228 21537,6737.254,91.724,361.485,356.753,0.0
55316.0,STARLINK-5257,PAYLOAD,2023-05-26 04:38:43,15.69921179,0.0003514,69.9981,72.9891,256.8442,103.2362,4.1357e-06,2.84e-06,0.0,0 STARLINK-5257,1 55316U 23010AZ  23146.19355419  .00000284  00000-0  41357-5 0  9998,2 55316  69.9981  72.9891 0003514 256.8442 103.2362 15.69921179 20384,6737.26,91.724,361.492,356.757,0.0
55316.0,STARLINK-5257,PAYLOAD,2023-05-26 21:27:59,15.69923368,0.000337,69.9986,71.0183,256.5876,103.4944,1.8812e-06,1.3e-07,0.0,0 STARLINK-5257,1 55316U 23010AZ  23146.89443777  .00000013  00000-0  18812-5 0  9990,2 55316  69.9986  71.0183 0003370 256.5876 103.4944 15.69923368 21685,6737.253,91.724,361.389,356.848,0.0
55316.0,STARLINK-5257,PAYLOAD,2023-05-27 05:06:45,15.69923247,0.0003364,69.9984,70.1222,258.0211,102.0607,1.5601e-06,-2.5e-07,0.0,0 STARLINK-5257,1 55316U 23010AZ  23147.21302145 -.00000025  00000-0  15601-5 0  9997,2 55316  69.9984  70.1222 0003364 258.0211 102.0607 15.69923247 20541,6737.254,91.724,361.385,356.852,0.0
55316.0,STARLINK-5257,PAYLOAD,2023-05-27 21:56:01,15.69923251,0.000337,69.9981,68.1518,268.861,91.22,7.5234e-06,6.92e-06,0.0,0 STARLINK-5257,1 55316U 23010AZ  23147.91390411  .00000692  00000-0  75234-5 0  9994,2 55316  69.9981  68.1518 0003370 268.8610  91.2200 15.69923251 21849,6737.254,91.724,361.389,356.848,0.0
55316.0,STARLINK-5257,PAYLOAD,2023-05-28 04:03:01,15.6992376,0.0003421,69.9983,67.4354,265.5755,94.505,6.8851e-06,6.15e-06,0.0,0 STARLINK-5257,1 55316U 23010AZ  23148.16877061  .00000615  00000-0  68851-5 0  9995,2 55316  69.9983  67.4354 0003421 265.5755  94.5050 15.69923760 21880,6737.252,91.724,361.422,356.812,0.0
55316.0,STARLINK-5257,PAYLOAD,2023-05-28 19:20:33,15.69923864,0.0003452,69.9984,65.6442,265.9377,94.1424,3.9132e-06,2.58e-06,0.0,0 STARLINK-5257,1 55316U 23010AZ  23148.80593854  .00000258  00000-0  39132-5 0  9994,2 55316  69.9984  65.6442 0003452 265.9377  94.1424 15.69923864 20792,6737.252,91.724,361.443,356.791,0.0
55316.0,STARLINK-5257,PAYLOAD,2023-05-28 20:52:18,15.69924782,0.0003433,69.9986,65.4649,265.4341,94.6462,5.1443e-06,4.06e-06,0.0,0 STARLINK-5257,1 55316U 23010AZ  23148.86965438  .00000406  00000-0  51443-5 0  9995,2 55316  69.9986  65.4649 0003433 265.4341  94.6462 15.69924782 21996,6737.249,91.724,361.427,356.801,0.0
55316.0,STARLINK-5257,PAYLOAD,2023-05-29 04:31:04,15.69921595,0.0003576,69.9988,64.5698,269.9097,90.1689,1.2726e-06,-6e-07,0.0,0 STARLINK-5257,1 55316U 23010AZ  23149.18824093 -.00000060  00000-0  12726-5 0  9990,2 55316  69.9988  64.5698 0003576 269.9097  90.1689 15.69921595 22045,6737.258,91.724,361.533,356.714,0.0
55316.0,STARLINK-5257,PAYLOAD,2023-05-29 18:16:50,15.69918804,0.0003961,69.998,62.9565,269.585,90.4891,-3.9536e-06,-6.88e-06,0.0,0 STARLINK-5257,1 55316U 23010AZ  23149.76169435 -.00000688  00000-0 -39536-5 0  9991,2 55316  69.9980  62.9565 0003961 269.5850  90.4891 15.69918804 20947,6737.266,91.724,361.8,356.463,0.0
55316.0,STARLINK-5257,PAYLOAD,2023-05-29 21:20:20,15.69925358,0.0003439,69.9986,62.598,273.3786,86.7016,3.4836e-06,2.06e-06,0.0,0 STARLINK-5257,1 55316U 23010AZ  23149.88912312  .00000206  00000-0  34836-5 0  9996,2 55316  69.9986  62.5980 0003439 273.3786  86.7016 15.69925358 22155,6737.248,91.724,361.429,356.796,0.0
55316.0,STARLINK-5257,PAYLOAD,2023-05-30 03:27:20,15.69926237,0.0003253,69.9986,61.8814,269.5897,90.4926,4.0576e-06,2.75e-06,0.0,0 STARLINK-5257,1 55316U 23010AZ  23150.14398872  .00000275  00000-0  40576-5 0  9990,2 55316  69.9986  61.8814 0003253 269.5897  90.4926 15.69926237 22190,6737.245,91.724,361.302,356.918,0.0
55316.0,STARLINK-5257,PAYLOAD,2023-05-30 21:48:22,15.69921889,0.0002957,69.9995,59.7319,263.5431,96.5428,-2.2804e-06,-4.87e-06,0.0,0 STARLINK-5257,1 55316U 23010AZ  23150.90859412 -.00000487  00000-0 -22804-5 0  9997,2 55316  69.9995  59.7319 0002957 263.5431  96.5428 15.69921889 22310,6737.257,91.724,361.115,357.13,0.0
55316.0,STARLINK-5257,PAYLOAD,2023-05-31 02:23:37,15.69925562,0.0002781,69.9995,59.1944,260.3454,99.7428,2.2674e-06,6e-07,0.0,0 STARLINK-5257,1 55316U 23010AZ  23151.09974092  .00000060  00000-0  22674-5 0  9990,2 55316  69.9995  59.1944 0002781 260.3454  99.7428 15.69925562 21151,6737.247,91.724,360.986,357.238,0.0
55316.0,STARLINK-5257,PAYLOAD,2023-05-31 03:55:22,15.69927558,0.0002843,69.9992,59.014,264.3136,95.7736,-2.1658e-06,-4.73e-06,0.0,0 STARLINK-5257,1 55316U 23010AZ  23151.16345757 -.00000473  00000-0 -21658-5 0  9999,2 55316  69.9992  59.0140 0002843 264.3136  95.7736 15.69927558 22353,6737.241,91.724,361.022,357.191,0.0
55316.0,STARLINK-5257,PAYLOAD,2023-05-31 20:44:39,15.69927202,0.0002814,69.999,57.0446,254.2774,105.8111,-1.0693e-06,-3.41e-06,0.0,0 STARLINK-5257,1 55316U 23010AZ  23151.86434154 -.00000341  00000-0 -10693-5 0  9997,2 55316  69.9990  57.0446 0002814 254.2774 105.8111 15.69927202 22460,6737.242,91.724,361.003,357.211,0.0
55316.0,STARLINK-5257,PAYLOAD,2023-06-01 02:51:39,15.69928628,0.0003241,69.9987,56.3283,259.895,100.188,2.9499e-06,1.42e-06,0.0,0 STARLINK-5257,1 55316U 23010AZ  23152.11920547  .00000142  00000-0  29499-5 0  9993,2 55316  69.9987  56.3283 0003241 259.8950 100.1880 15.69928628 22508,6737.238,91.724,361.287,356.92,0.0
